[{"OBJECT_NAME":"STARLINK-2610","OBJECT_ID":"2021-038Z","EPOCH":"2026-03-09T22:45:55.353312","MEAN_MOTION":15.30187161,"ECCENTRICITY":0.00013679,"INCLINATION":53.159,"RA_OF_ASC_NODE":346.5999,"ARG_OF_PERICENTER":111.1285,"MEAN_ANOMALY":248.9862,"EPHEMERIS_TYPE":0,"CLASSIFICATION_TYPE":"U","NORAD_CAT_ID":48376,"ELEMENT_SET_NO":999,"REV_AT_EPOCH":26726,"BSTAR":0.00048412082,"MEAN_MOTION_DOT":0.00014,"MEAN_MOTION_DDOT":0},{"OBJECT_NAME":"GHGSAT-C3","OBJECT_ID":"2022-057F","EPOCH":"2026-03-09T22:30:13.234752","MEAN_MOTION":15.32943835,"ECCENTRICITY":0.00073198,"INCLINATION":97.6431,"RA_OF_ASC_NODE":211.0668,"ARG_OF_PERICENTER":112.4588,"MEAN_ANOMALY":247.7429,"EPHEMERIS_TYPE":0,"CLASSIFICATION_TYPE":"U","NORAD_CAT_ID":52737,"ELEMENT_SET_NO":999,"REV_AT_EPOCH":21032,"BSTAR":0.00031249517,"MEAN_MOTION_DOT":9.871e-5,"MEAN_MOTION_DDOT":0}]
